STARLINK-32037          
1 60283U 24132F   25212.69449281 -.00000716  00000+0 -12062-4 0  9996
2 60283  53.1616 359.0302 0001162  82.2383 277.8749 15.30186318 57722
STARLINK-32123          
1 60284U 24132G   25212.63287063 -.00005374  00000+0 -16968-3 0  9992
2 60284  53.1607 346.5907 0001104  82.1719 277.9407 15.30154849 57897
STARLINK-32122          
1 60285U 24132H   25212.68815611 -.00000172  00000+0  63019-5 0  9995
2 60285  53.1617 358.9923 0001156  77.6538 282.4592 15.30193660 57721
STARLINK-31656          
1 60286U 24132J   25213.38340004  .00001882  00000+0  75681-4 0  9998
2 60286  53.1615 355.5160 0000920  91.9037 268.2070 15.30176307 57831
STARLINK-32114          
1 60287U 24132K   25213.69425926  .00000496  00000+0  28861-4 0  9998
2 60287  53.1624 354.6045 0001283  89.7114 270.4034 15.30192740 57865
STARLINK-31997          
1 60288U 24132L   25213.37390194 -.00002141  00000+0 -60214-4 0  9991
2 60288  53.1616 355.4509 0001363 101.3648 258.7506 15.30188657 57835
STARLINK-32000          
1 60289U 24132M   25213.80800575  .00010676  00000+0  37205-3 0  9992
2 60289  53.1600 353.8970 0001274  93.2672 266.8475 15.30200960 57893
STARLINK-32141          
1 60290U 24132N   25213.79217764 -.00000286  00000+0  24613-5 0  9992
2 60290  53.1620 353.7950 0001314  82.2325 277.8825 15.30188181 57893
STARLINK-32142          
1 60291U 24132P   25213.37918089 -.00000485  00000+0 -42419-5 0  9991
2 60291  53.1620 355.4826 0001224  89.8142 270.2999 15.30192176 57837
STARLINK-32149          
1 60292U 24132Q   25212.70082285  .00000711  00000+0  36140-4 0  9991
2 60292  53.1624 359.0731 0001218  83.8172 276.2967 15.30178016 57723
STARLINK-32159          
1 60293U 24132R   25213.76898789 -.00002483  00000+0 -71782-4 0  9994
2 60293  53.1613 353.6512 0001296  82.6974 277.4174 15.30171749 57899
STARLINK-32150          
1 60294U 24132S   25212.70398922 -.00000367  00000+0 -25653-6 0  9999
2 60294  53.1623 359.0931 0001246  91.1259 268.9884 15.30189472 57729
STARLINK-32126          
1 60295U 24132T   25213.76168992 -.00000526  00000+0 -56423-5 0  9994
2 60295  53.1613 354.3130 0001118  92.4714 267.6415 15.30186100 57884
STARLINK-32143          
1 60296U 24132U   25213.42561111 -.00001356  00000+0 -33652-4 0  9998
2 60296  53.1614 355.7748 0000928  85.3446 274.7661 15.30203760 57836
STARLINK-32034          
1 60297U 24132V   25213.80377471 -.00006140  00000+0 -19516-3 0  9993
2 60297  53.1617 353.8649 0001606  97.6395 262.4788 15.30227088 57880
STARLINK-32124          
1 60298U 24132W   25213.42455870  .00000311  00000+0  22622-4 0  9997
2 60298  53.1612 355.7669 0001106  85.1422 274.9705 15.30191808 57839
STARLINK-32151          
1 60299U 24132X   25213.49230385  .00000434  00000+0  26787-4 0  9999
2 60299  53.1613 326.7841 0001246 111.7591 248.3542 15.30185516 58248
