[{"OBJECT_NAME":"STARLINK-32037","OBJECT_ID":"2024-132F","EPOCH":"2025-07-31T16:40:04.178784","MEAN_MOTION":15.30186318,"ECCENTRICITY":0.0001162,"INCLINATION":53.1616,"RA_OF_ASC_NODE":359.0302,"ARG_OF_PERICENTER":82.2383,"MEAN_ANOMALY":277.8749,"EPHEMERIS_TYPE":0,"CLASSIFICATION_TYPE":"U","NORAD_CAT_ID":60283,"ELEMENT_SET_NO":999,"REV_AT_EPOCH":5772,"BSTAR":-1.2062e-5,"MEAN_MOTION_DOT":-7.16e-6,"MEAN_MOTION_DDOT":0},{"OBJECT_NAME":"STARLINK-32123","OBJECT_ID":"2024-132G","EPOCH":"2025-07-31T15:11:20.022432","MEAN_MOTION":15.30154849,"ECCENTRICITY":0.0001104,"INCLINATION":53.1607,"RA_OF_ASC_NODE":346.5907,"ARG_OF_PERICENTER":82.1719,"MEAN_ANOMALY":277.9407,"EPHEMERIS_TYPE":0,"CLASSIFICATION_TYPE":"U","NORAD_CAT_ID":60284,"ELEMENT_SET_NO":999,"REV_AT_EPOCH":5789,"BSTAR":-0.00016968,"MEAN_MOTION_DOT":-5.374e-5,"MEAN_MOTION_DDOT":0},{"OBJECT_NAME":"STARLINK-32122","OBJECT_ID":"2024-132H","EPOCH":"2025-07-31T16:30:56.687904","MEAN_MOTION":15.3019366,"ECCENTRICITY":0.0001156,"INCLINATION":53.1617,"RA_OF_ASC_NODE":358.9923,"ARG_OF_PERICENTER":77.6538,"MEAN_ANOMALY":282.4592,"EPHEMERIS_TYPE":0,"CLASSIFICATION_TYPE":"U","NORAD_CAT_ID":60285,"ELEMENT_SET_NO":999,"REV_AT_EPOCH":5772,"BSTAR":6.3019e-6,"MEAN_MOTION_DOT":-1.72e-6,"MEAN_MOTION_DDOT":0},{"OBJECT_NAME":"STARLINK-31656","OBJECT_ID":"2024-132J","EPOCH":"2025-08-01T09:12:05.763456","MEAN_MOTION":15.30176307,"ECCENTRICITY":9.2e-5,"INCLINATION":53.1615,"RA_OF_ASC_NODE":355.516,"ARG_OF_PERICENTER":91.9037,"MEAN_ANOMALY":268.207,"EPHEMERIS_TYPE":0,"CLASSIFICATION_TYPE":"U","NORAD_CAT_ID":60286,"ELEMENT_SET_NO":999,"REV_AT_EPOCH":5783,"BSTAR":7.5681e-5,"MEAN_MOTION_DOT":1.882e-5,"MEAN_MOTION_DDOT":0},{"OBJECT_NAME":"STARLINK-32114","OBJECT_ID":"2024-132K","EPOCH":"2025-08-01T16:39:44.000064","MEAN_MOTION":15.3019274,"ECCENTRICITY":0.0001283,"INCLINATION":53.1624,"RA_OF_ASC_NODE":354.6045,"ARG_OF_PERICENTER":89.7114,"MEAN_ANOMALY":270.4034,"EPHEMERIS_TYPE":0,"CLASSIFICATION_TYPE":"U","NORAD_CAT_ID":60287,"ELEMENT_SET_NO":999,"REV_AT_EPOCH":5786,"BSTAR":2.8861e-5,"MEAN_MOTION_DOT":4.96e-6,"MEAN_MOTION_DDOT":0},{"OBJECT_NAME":"STARLINK-31997","OBJECT_ID":"2024-132L","EPOCH":"2025-08-01T08:58:25.127616","MEAN_MOTION":15.30188657,"ECCENTRICITY":0.0001363,"INCLINATION":53.1616,"RA_OF_ASC_NODE":355.4509,"ARG_OF_PERICENTER":101.3648,"MEAN_ANOMALY":258.7506,"EPHEMERIS_TYPE":0,"CLASSIFICATION_TYPE":"U","NORAD_CAT_ID":60288,"ELEMENT_SET_NO":999,"REV_AT_EPOCH":5783,"BSTAR":-6.0214e-5,"MEAN_MOTION_DOT":-2.141e-5,"MEAN_MOTION_DDOT":0},{"OBJECT_NAME":"STARLINK-32000","OBJECT_ID":"2024-132M","EPOCH":"2025-08-01T19:23:31.696800","MEAN_MOTION":15.3020096,"ECCENTRICITY":0.0001274,"INCLINATION":53.16,"RA_OF_ASC_NODE":353.897,"ARG_OF_PERICENTER":93.2672,"MEAN_ANOMALY":266.8475,"EPHEMERIS_TYPE":0,"CLASSIFICATION_TYPE":"U","NORAD_CAT_ID":60289,"ELEMENT_SET_NO":999,"REV_AT_EPOCH":5789,"BSTAR":0.00037205,"MEAN_MOTION_DOT":0.00010676,"MEAN_MOTION_DDOT":0},{"OBJECT_NAME":"STARLINK-32141","OBJECT_ID":"2024-132N","EPOCH":"2025-08-01T19:00:44.148096","MEAN_MOTION":15.30188181,"ECCENTRICITY":0.0001314,"INCLINATION":53.162,"RA_OF_ASC_NODE":353.795,"ARG_OF_PERICENTER":82.2325,"MEAN_ANOMALY":277.8825,"EPHEMERIS_TYPE":0,"CLASSIFICATION_TYPE":"U","NORAD_CAT_ID":60290,"ELEMENT_SET_NO":999,"REV_AT_EPOCH":5789,"BSTAR":2.4613e-6,"MEAN_MOTION_DOT":-2.86e-6,"MEAN_MOTION_DDOT":0},{"OBJECT_NAME":"STARLINK-32142","OBJECT_ID":"2024-132P","EPOCH":"2025-08-01T09:06:01.228896","MEAN_MOTION":15.30192176,"ECCENTRICITY":0.0001224,"INCLINATION":53.162,"RA_OF_ASC_NODE":355.4826,"ARG_OF_PERICENTER":89.8142,"MEAN_ANOMALY":270.2999,"EPHEMERIS_TYPE":0,"CLASSIFICATION_TYPE":"U","NORAD_CAT_ID":60291,"ELEMENT_SET_NO":999,"REV_AT_EPOCH":5783,"BSTAR":-4.2419e-6,"MEAN_MOTION_DOT":-4.85e-6,"MEAN_MOTION_DDOT":0},{"OBJECT_NAME":"STARLINK-32149","OBJECT_ID":"2024-132Q","EPOCH":"2025-07-31T16:49:11.094240","MEAN_MOTION":15.30178016,"ECCENTRICITY":0.0001218,"INCLINATION":53.1624,"RA_OF_ASC_NODE":359.0731,"ARG_OF_PERICENTER":83.8172,"MEAN_ANOMALY":276.2967,"EPHEMERIS_TYPE":0,"CLASSIFICATION_TYPE":"U","NORAD_CAT_ID":60292,"ELEMENT_SET_NO":999,"REV_AT_EPOCH":5772,"BSTAR":3.614e-5,"MEAN_MOTION_DOT":7.11e-6,"MEAN_MOTION_DDOT":0},{"OBJECT_NAME":"STARLINK-32159","OBJECT_ID":"2024-132R","EPOCH":"2025-08-01T18:27:20.553696","MEAN_MOTION":15.30171749,"ECCENTRICITY":0.0001296,"INCLINATION":53.1613,"RA_OF_ASC_NODE":353.6512,"ARG_OF_PERICENTER":82.6974,"MEAN_ANOMALY":277.4174,"EPHEMERIS_TYPE":0,"CLASSIFICATION_TYPE":"U","NORAD_CAT_ID":60293,"ELEMENT_SET_NO":999,"REV_AT_EPOCH":5789,"BSTAR":-7.1782e-5,"MEAN_MOTION_DOT":-2.483e-5,"MEAN_MOTION_DDOT":0},{"OBJECT_NAME":"STARLINK-32150","OBJECT_ID":"2024-132S","EPOCH":"2025-07-31T16:53:44.668608","MEAN_MOTION":15.30189472,"ECCENTRICITY":0.0001246,"INCLINATION":53.1623,"RA_OF_ASC_NODE":359.0931,"ARG_OF_PERICENTER":91.1259,"MEAN_ANOMALY":268.9884,"EPHEMERIS_TYPE":0,"CLASSIFICATION_TYPE":"U","NORAD_CAT_ID":60294,"ELEMENT_SET_NO":999,"REV_AT_EPOCH":5772,"BSTAR":-2.5653e-7,"MEAN_MOTION_DOT":-3.67e-6,"MEAN_MOTION_DDOT":0},{"OBJECT_NAME":"STARLINK-32126","OBJECT_ID":"2024-132T","EPOCH":"2025-08-01T18:16:50.009088","MEAN_MOTION":15.301861,"ECCENTRICITY":0.0001118,"INCLINATION":53.1613,"RA_OF_ASC_NODE":354.313,"ARG_OF_PERICENTER":92.4714,"MEAN_ANOMALY":267.6415,"EPHEMERIS_TYPE":0,"CLASSIFICATION_TYPE":"U","NORAD_CAT_ID":60295,"ELEMENT_SET_NO":999,"REV_AT_EPOCH":5788,"BSTAR":-5.6423e-6,"MEAN_MOTION_DOT":-5.26e-6,"MEAN_MOTION_DDOT":0},{"OBJECT_NAME":"STARLINK-32143","OBJECT_ID":"2024-132U","EPOCH":"2025-08-01T10:12:52.799904","MEAN_MOTION":15.3020376,"ECCENTRICITY":9.28e-5,"INCLINATION":53.1614,"RA_OF_ASC_NODE":355.7748,"ARG_OF_PERICENTER":85.3446,"MEAN_ANOMALY":274.7661,"EPHEMERIS_TYPE":0,"CLASSIFICATION_TYPE":"U","NORAD_CAT_ID":60296,"ELEMENT_SET_NO":999,"REV_AT_EPOCH":5783,"BSTAR":-3.3652e-5,"MEAN_MOTION_DOT":-1.356e-5,"MEAN_MOTION_DDOT":0},{"OBJECT_NAME":"STARLINK-32034","OBJECT_ID":"2024-132V","EPOCH":"2025-08-01T19:17:26.134944","MEAN_MOTION":15.30227088,"ECCENTRICITY":0.0001606,"INCLINATION":53.1617,"RA_OF_ASC_NODE":353.8649,"ARG_OF_PERICENTER":97.6395,"MEAN_ANOMALY":262.4788,"EPHEMERIS_TYPE":0,"CLASSIFICATION_TYPE":"U","NORAD_CAT_ID":60297,"ELEMENT_SET_NO":999,"REV_AT_EPOCH":5788,"BSTAR":-0.00019516,"MEAN_MOTION_DOT":-6.14e-5,"MEAN_MOTION_DDOT":0},{"OBJECT_NAME":"STARLINK-32124","OBJECT_ID":"2024-132W","EPOCH":"2025-08-01T10:11:21.871680","MEAN_MOTION":15.30191808,"ECCENTRICITY":0.0001106,"INCLINATION":53.1612,"RA_OF_ASC_NODE":355.7669,"ARG_OF_PERICENTER":85.1422,"MEAN_ANOMALY":274.9705,"EPHEMERIS_TYPE":0,"CLASSIFICATION_TYPE":"U","NORAD_CAT_ID":60298,"ELEMENT_SET_NO":999,"REV_AT_EPOCH":5783,"BSTAR":2.2622e-5,"MEAN_MOTION_DOT":3.11e-6,"MEAN_MOTION_DDOT":0},{"OBJECT_NAME":"STARLINK-32151","OBJECT_ID":"2024-132X","EPOCH":"2025-08-01T11:48:55.052640","MEAN_MOTION":15.30185516,"ECCENTRICITY":0.0001246,"INCLINATION":53.1613,"RA_OF_ASC_NODE":326.7841,"ARG_OF_PERICENTER":111.7591,"MEAN_ANOMALY":248.3542,"EPHEMERIS_TYPE":0,"CLASSIFICATION_TYPE":"U","NORAD_CAT_ID":60299,"ELEMENT_SET_NO":999,"REV_AT_EPOCH":5824,"BSTAR":2.6787e-5,"MEAN_MOTION_DOT":4.34e-6,"MEAN_MOTION_DDOT":0}]
